{"fetched_at":"2026-03-29T02:12:04Z","count":15717,"tles":[{"name":"STARLINK-4595","line1":"1 53627U 22104AR  26087.59906623  .00009403  00000+0  60889-3 0  9994","line2":"2 53627  53.2169 148.9519 0001667  94.9437 265.1746 15.08790347198614","category":"Starlink"}]}